{
  "links" : {
    "next" : "https://api.nasa.gov/neo/rest/v1/neo/browse?page=24&size=20&api_key=jqAGvNAwUIBu4fl9FSOjdm3V4F7hIglRzI6pdX9d",
    "prev" : "https://api.nasa.gov/neo/rest/v1/neo/browse?page=22&size=20&api_key=jqAGvNAwUIBu4fl9FSOjdm3V4F7hIglRzI6pdX9d",
    "self" : "https://api.nasa.gov/neo/rest/v1/neo/browse?page=23&size=20&api_key=jqAGvNAwUIBu4fl9FSOjdm3V4F7hIglRzI6pdX9d"
  },
  "page" : {
    "size" : 20,
    "total_elements" : 20750,
    "total_pages" : 1038,
    "number" : 23
  },
  "near_earth_objects" : [ {
    "links" : {
      "self" : "https://api.nasa.gov/neo/rest/v1/neo/3305485?api_key=jqAGvNAwUIBu4fl9FSOjdm3V4F7hIglRzI6pdX9d"
    },
    "neo_reference_id" : "3305485",
    "name" : "(2005 XC)",
    "designation" : "2005 XC",
    "nasa_jpl_url" : "http://ssd.jpl.nasa.gov/sbdb.cgi?sstr=3305485",
    "absolute_magnitude_h" : 22.7,
    "estimated_diameter" : {
      "kilometers" : {
        "estimated_diameter_min" : 0.0766575574,
        "estimated_diameter_max" : 0.1714115092
      },
      "meters" : {
        "estimated_diameter_min" : 76.6575573531,
        "estimated_diameter_max" : 171.4115092306
      },
      "miles" : {
        "estimated_diameter_min" : 0.0476327831,
        "estimated_diameter_max" : 0.1065101409
      },
      "feet" : {
        "estimated_diameter_min" : 251.5011804664,
        "estimated_diameter_max" : 562.3737359442
      }
    },
    "is_potentially_hazardous_asteroid" : false,
    "close_approach_data" : [ {
      "close_approach_date" : "2005-11-23",
      "epoch_date_close_approach" : 1132732800000,
      "relative_velocity" : {
        "kilometers_per_second" : "8.3106889423",
        "kilometers_per_hour" : "29918.4801924365",
        "miles_per_hour" : "18590.1800951281"
      },
      "miss_distance" : {
        "astronomical" : "0.043420537",
        "lunar" : "16.8905887604",
        "kilometers" : "6495620",
        "miles" : "4036191.25"
      },
      "orbiting_body" : "Earth"
    }, {
      "close_approach_date" : "2012-09-07",
      "epoch_date_close_approach" : 1347001200000,
      "relative_velocity" : {
        "kilometers_per_second" : "21.319994093",
        "kilometers_per_hour" : "76751.9787348558",
        "miles_per_hour" : "47690.6947866664"
      },
      "miss_distance" : {
        "astronomical" : "0.4551953739",
        "lunar" : "177.0709991455",
        "kilometers" : "68096256",
        "miles" : "42313052"
      },
      "orbiting_body" : "Earth"
    } ],
    "orbital_data" : {
      "orbit_id" : "16",
      "orbit_determination_date" : "2017-04-06 09:09:43",
      "first_observation_date" : "2005-12-01",
      "last_observation_date" : "2005-12-31",
      "data_arc_in_days" : 30,
      "observations_used" : 52,
      "orbit_uncertainty" : "7",
      "minimum_orbit_intersection" : ".0098139",
      "jupiter_tisserand_invariant" : "3.373",
      "epoch_osculation" : "2458600.5",
      "eccentricity" : ".5621150347445119",
      "semi_major_axis" : "2.282079154229062",
      "inclination" : "3.656970031069175",
      "ascending_node_longitude" : "215.6680575264864",
      "orbital_period" : "1259.199326511715",
      "perihelion_distance" : ".9992881511598665",
      "perihelion_argument" : "189.7264432808297",
      "aphelion_distance" : "3.564870157298258",
      "perihelion_time" : "2458732.167123233557",
      "mean_anomaly" : "322.356901432444",
      "mean_motion" : ".2858959597741261",
      "equinox" : "J2000",
      "orbit_class" : {
        "orbit_class_type" : "APO",
        "orbit_class_range" : "a (semi-major axis) > 1.0 AU; q (perihelion) < 1.017 AU",
        "orbit_class_description" : "Near-Earth asteroid orbits which cross the Earth’s orbit similar to that of 1862 Apollo"
      }
    },
    "is_sentry_object" : false
  }, {
    "links" : {
      "self" : "https://api.nasa.gov/neo/rest/v1/neo/3305500?api_key=jqAGvNAwUIBu4fl9FSOjdm3V4F7hIglRzI6pdX9d"
    },
    "neo_reference_id" : "3305500",
    "name" : "(2005 XN)",
    "designation" : "2005 XN",
    "nasa_jpl_url" : "http://ssd.jpl.nasa.gov/sbdb.cgi?sstr=3305500",
    "absolute_magnitude_h" : 24.3,
    "estimated_diameter" : {
      "kilometers" : {
        "estimated_diameter_min" : 0.0366906138,
        "estimated_diameter_max" : 0.0820427065
      },
      "meters" : {
        "estimated_diameter_min" : 36.6906137531,
        "estimated_diameter_max" : 82.0427064882
      },
      "miles" : {
        "estimated_diameter_min" : 0.0227984834,
        "estimated_diameter_max" : 0.0509789586
      },
      "feet" : {
        "estimated_diameter_min" : 120.3760332259,
        "estimated_diameter_max" : 269.1689931548
      }
    },
    "is_potentially_hazardous_asteroid" : false,
    "close_approach_data" : [ {
      "close_approach_date" : "2005-11-30",
      "epoch_date_close_approach" : 1133337600000,
      "relative_velocity" : {
        "kilometers_per_second" : "12.9949058945",
        "kilometers_per_hour" : "46781.6612201212",
        "miles_per_hour" : "29068.3049953581"
      },
      "miss_distance" : {
        "astronomical" : "0.0630231954",
        "lunar" : "24.5160236359",
        "kilometers" : "9428136",
        "miles" : "5858372"
      },
      "orbiting_body" : "Earth"
    } ],
    "orbital_data" : {
      "orbit_id" : "8",
      "orbit_determination_date" : "2017-04-06 09:09:43",
      "first_observation_date" : "2005-12-02",
      "last_observation_date" : "2005-12-05",
      "data_arc_in_days" : 3,
      "observations_used" : 20,
      "orbit_uncertainty" : "8",
      "minimum_orbit_intersection" : ".0604552",
      "jupiter_tisserand_invariant" : "3.944",
      "epoch_osculation" : "2453708.5",
      "eccentricity" : ".4182664894086788",
      "semi_major_axis" : "1.758326996273226",
      "inclination" : "21.15835216914857",
      "ascending_node_longitude" : "71.88797207046719",
      "orbital_period" : "851.6240018579691",
      "perihelion_distance" : "1.022877736309517",
      "perihelion_argument" : "335.9479926135543",
      "aphelion_distance" : "2.493776256236935",
      "perihelion_time" : "2453685.951248701672",
      "mean_anomaly" : "9.531847916085267",
      "mean_motion" : ".4227217636123407",
      "equinox" : "J2000",
      "orbit_class" : {
        "orbit_class_type" : "AMO",
        "orbit_class_range" : "1.017 AU < q (perihelion) < 1.3 AU",
        "orbit_class_description" : "Near-Earth asteroid orbits similar to that of 1221 Amor"
      }
    },
    "is_sentry_object" : false
  } ]
}